start=new Date('2021-12-05T00:00:00.000Z').valueOf();
sats=[{"EPOCH":"2021-12-04T20:12:57.204864","DECAY_DATE":null,"EPHEMERIS_TYPE":"0","TIME_SYSTEM":"UTC","RCS_SIZE":"LARGE","MEAN_ELEMENT_THEORY":"SGP4","BSTAR":"0.00010029000000","PERIAPSIS":"546.175","OBJECT_NAME":"STARLINK-1185","NORAD_CAT_ID":"45087","MEAN_ANOMALY":"286.3645","OBJECT_ID":"2020-006AV","PERIOD":"95.592","OBJECT_TYPE":"PAYLOAD","COUNTRY_CODE":"US","RA_OF_ASC_NODE":"31.0819","APOAPSIS":"548.252","MEAN_MOTION":"15.06400017","FILE":"3232651","SEMIMAJOR_AXIS":"6925.349","LAUNCH_DATE":"2020-01-29","GP_ID":"191101538","SITE":"AFETR","MEAN_MOTION_DOT":"0.00001213","ELEMENT_SET_NO":"999","TLE_LINE2":"2 45087  53.0548  31.0819 0001499  73.7509 286.3645 15.06400017102525","REV_AT_EPOCH":"10252","CLASSIFICATION_TYPE":"U","REF_FRAME":"TEME","CENTER_NAME":"EARTH","INCLINATION":"53.0548","ARG_OF_PERICENTER":"73.7509","MEAN_MOTION_DDOT":"0.0000000000000","TLE_LINE1":"1 45087U 20006AV  21338.84232876  .00001213  00000-0  10029-3 0  9991","ECCENTRICITY":"0.00014990"},{"APOAPSIS":"548.155","COUNTRY_CODE":"US","RA_OF_ASC_NODE":"31.0001","GP_ID":"191101789","LAUNCH_DATE":"2020-01-29","SITE":"AFETR","FILE":"3232651","MEAN_MOTION":"15.06388288","SEMIMAJOR_AXIS":"6925.384","ELEMENT_SET_NO":"999","MEAN_MOTION_DOT":"-0.00001794","CLASSIFICATION_TYPE":"U","REV_AT_EPOCH":"10252","TLE_LINE2":"2 45088  53.0560  31.0001 0001308  75.2783 284.8351 15.06388288102525","INCLINATION":"53.0560","REF_FRAME":"TEME","CENTER_NAME":"EARTH","MEAN_MOTION_DDOT":"0.0000000000000","TLE_LINE1":"1 45088U 20006AW  21338.86444788 -.00001794  00000-0 -10163-3 0  9996","ARG_OF_PERICENTER":"75.2783","ECCENTRICITY":"0.00013080","DECAY_DATE":null,"EPHEMERIS_TYPE":"0","EPOCH":"2021-12-04T20:44:48.296832","MEAN_ELEMENT_THEORY":"SGP4","RCS_SIZE":"LARGE","TIME_SYSTEM":"UTC","BSTAR":"-0.00010163000000","PERIAPSIS":"546.344","NORAD_CAT_ID":"45088","OBJECT_NAME":"STARLINK-1183","MEAN_ANOMALY":"284.8351","OBJECT_ID":"2020-006AW","PERIOD":"95.593","OBJECT_TYPE":"PAYLOAD"},{"COUNTRY_CODE":"US","RA_OF_ASC_NODE":"30.9539","APOAPSIS":"548.202","FILE":"3232651","MEAN_MOTION":"15.06392013","SEMIMAJOR_AXIS":"6925.373","GP_ID":"191100537","SITE":"AFETR","LAUNCH_DATE":"2020-01-29","MEAN_MOTION_DOT":"0.00001761","ELEMENT_SET_NO":"999","TLE_LINE2":"2 45089  53.0559  30.9539 0001392  78.3394 281.7751 15.06392013102535","REV_AT_EPOCH":"10253","CLASSIFICATION_TYPE":"U","REF_FRAME":"TEME","CENTER_NAME":"EARTH","INCLINATION":"53.0559","ARG_OF_PERICENTER":"78.3394","MEAN_MOTION_DDOT":"0.0000000000000","TLE_LINE1":"1 45089U 20006AX  21338.86349769  .00001761  00000-0  13714-3 0  9997","ECCENTRICITY":"0.00013920","EPOCH":"2021-12-04T20:43:26.200416","DECAY_DATE":null,"EPHEMERIS_TYPE":"0","TIME_SYSTEM":"UTC","RCS_SIZE":"LARGE","MEAN_ELEMENT_THEORY":"SGP4","BSTAR":"0.00013714000000","PERIAPSIS":"546.274","OBJECT_NAME":"STARLINK-1136","NORAD_CAT_ID":"45089","MEAN_ANOMALY":"281.7751","OBJECT_ID":"2020-006AX","PERIOD":"95.593","OBJECT_TYPE":"PAYLOAD"},{"EPHEMERIS_TYPE":"0","DECAY_DATE":null,"EPOCH":"2021-12-04T20:23:34.338336","MEAN_ELEMENT_THEORY":"SGP4","TIME_SYSTEM":"UTC","RCS_SIZE":"LARGE","BSTAR":"-0.00005595500000","PERIAPSIS":"546.190","NORAD_CAT_ID":"45090","OBJECT_NAME":"STARLINK-1176","MEAN_ANOMALY":"313.2776","OBJECT_TYPE":"PAYLOAD","OBJECT_ID":"2020-006AY","PERIOD":"95.593","APOAPSIS":"548.298","COUNTRY_CODE":"US","RA_OF_ASC_NODE":"31.0539","GP_ID":"191101287","LAUNCH_DATE":"2020-01-29","SITE":"AFETR","SEMIMAJOR_AXIS":"6925.379","FILE":"3232651","MEAN_MOTION":"15.06390052","ELEMENT_SET_NO":"999","MEAN_MOTION_DOT":"-0.00001115","CLASSIFICATION_TYPE":"U","REV_AT_EPOCH":"10252","TLE_LINE2":"2 45090  53.0547  31.0539 0001522  46.8340 313.2776 15.06390052102520","INCLINATION":"53.0547","CENTER_NAME":"EARTH","REF_FRAME":"TEME","TLE_LINE1":"1 45090U 20006AY  21338.84970299 -.00001115  00000-0 -55955-4 0  9994","MEAN_MOTION_DDOT":"0.0000000000000","ARG_OF_PERICENTER":"46.8340","ECCENTRICITY":"0.00015220"},{"OBJECT_NAME":"STARLINK-1137","NORAD_CAT_ID":"45092","MEAN_ANOMALY":"295.6724","OBJECT_ID":"2020-006BA","PERIOD":"95.592","OBJECT_TYPE":"PAYLOAD","EPOCH":"2021-12-04T21:21:56.696256","DECAY_DATE":null,"EPHEMERIS_TYPE":"0","RCS_SIZE":"LARGE","TIME_SYSTEM":"UTC","MEAN_ELEMENT_THEORY":"SGP4","BSTAR":"0.00004081000000","PERIAPSIS":"546.197","REV_AT_EPOCH":"10252","TLE_LINE2":"2 45092  53.0562  30.8794 0001462  64.4416 295.6724 15.06401491102528","CLASSIFICATION_TYPE":"U","REF_FRAME":"TEME","CENTER_NAME":"EARTH","INCLINATION":"53.0562","ARG_OF_PERICENTER":"64.4416","MEAN_MOTION_DDOT":"0.0000000000000","TLE_LINE1":"1 45092U 20006BA  21338.89023954  .00000326  00000-0  40810-4 0  9993","ECCENTRICITY":"0.00014620","COUNTRY_CODE":"US","RA_OF_ASC_NODE":"30.8794","APOAPSIS":"548.221","FILE":"3232651","MEAN_MOTION":"15.06401491","SEMIMAJOR_AXIS":"6925.344","LAUNCH_DATE":"2020-01-29","GP_ID":"191102038","SITE":"AFETR","MEAN_MOTION_DOT":"0.00000326","ELEMENT_SET_NO":"999"},{"FILE":"3232651","MEAN_MOTION":"15.06389475","SEMIMAJOR_AXIS":"6925.381","GP_ID":"191102289","LAUNCH_DATE":"2020-01-29","SITE":"AFETR","MEAN_MOTION_DOT":"-0.00000180","ELEMENT_SET_NO":"999","COUNTRY_CODE":"US","RA_OF_ASC_NODE":"30.8916","APOAPSIS":"548.252","ARG_OF_PERICENTER":"66.9484","MEAN_MOTION_DDOT":"0.0000000000000","TLE_LINE1":"1 45093U 20006BB  21338.88656163 -.00000180  00000-0  68389-5 0  9998","ECCENTRICITY":"0.00014530","REV_AT_EPOCH":"10252","TLE_LINE2":"2 45093  53.0559  30.8916 0001453  66.9484 293.1658 15.06389475102529","CLASSIFICATION_TYPE":"U","REF_FRAME":"TEME","CENTER_NAME":"EARTH","INCLINATION":"53.0559","BSTAR":"0.00000683890000","PERIAPSIS":"546.240","EPOCH":"2021-12-04T21:16:38.924832","DECAY_DATE":null,"EPHEMERIS_TYPE":"0","TIME_SYSTEM":"UTC","RCS_SIZE":"LARGE","MEAN_ELEMENT_THEORY":"SGP4","PERIOD":"95.593","OBJECT_ID":"2020-006BB","OBJECT_TYPE":"PAYLOAD","OBJECT_NAME":"STARLINK-1142","NORAD_CAT_ID":"45093","MEAN_ANOMALY":"293.1658"},{"ECCENTRICITY":"0.00013550","ARG_OF_PERICENTER":"68.9618","TLE_LINE1":"1 45094U 20006BC  21338.56955992  .00000406  00000-0  46121-4 0  9995","MEAN_MOTION_DDOT":"0.0000000000000","CENTER_NAME":"EARTH","REF_FRAME":"TEME","INCLINATION":"53.0571","REV_AT_EPOCH":"10248","TLE_LINE2":"2 45094  53.0571  32.3036 0001355  68.9618 291.1516 15.06400082102480","CLASSIFICATION_TYPE":"U","MEAN_MOTION_DOT":"0.00000406","ELEMENT_SET_NO":"999","MEAN_MOTION":"15.06400082","FILE":"3232651","SEMIMAJOR_AXIS":"6925.348","GP_ID":"191101037","LAUNCH_DATE":"2020-01-29","SITE":"AFETR","RA_OF_ASC_NODE":"32.3036","COUNTRY_CODE":"US","APOAPSIS":"548.152","OBJECT_TYPE":"PAYLOAD","PERIOD":"95.592","OBJECT_ID":"2020-006BC","MEAN_ANOMALY":"291.1516","OBJECT_NAME":"STARLINK-1146","NORAD_CAT_ID":"45094","PERIAPSIS":"546.275","BSTAR":"0.00004612100000","TIME_SYSTEM":"UTC","RCS_SIZE":"LARGE","MEAN_ELEMENT_THEORY":"SGP4","EPOCH":"2021-12-04T13:40:09.977088","EPHEMERIS_TYPE":"0","DECAY_DATE":null},{"PERIAPSIS":"546.335","BSTAR":"-0.00006022900000","RCS_SIZE":"LARGE","TIME_SYSTEM":"UTC","MEAN_ELEMENT_THEORY":"SGP4","EPOCH":"2021-12-04T13:45:29.225952","EPHEMERIS_TYPE":"0","DECAY_DATE":null,"OBJECT_TYPE":"PAYLOAD","OBJECT_ID":"2020-006BD","PERIOD":"95.593","MEAN_ANOMALY":"294.1051","OBJECT_NAME":"STARLINK-1147","NORAD_CAT_ID":"45095","MEAN_MOTION_DOT":"-0.00001178","ELEMENT_SET_NO":"999","SEMIMAJOR_AXIS":"6925.368","FILE":"3232651","MEAN_MOTION":"15.06393660","GP_ID":"191100788","LAUNCH_DATE":"2020-01-29","SITE":"AFETR","RA_OF_ASC_NODE":"32.3041","COUNTRY_CODE":"US","APOAPSIS":"548.131","ECCENTRICITY":"0.00012960","ARG_OF_PERICENTER":"66.0073","TLE_LINE1":"1 45095U 20006BD  21338.57325493 -.00001178  00000-0 -60229-4 0  9998","MEAN_MOTION_DDOT":"0.0000000000000","CENTER_NAME":"EARTH","REF_FRAME":"TEME","INCLINATION":"53.0567","TLE_LINE2":"2 45095  53.0567  32.3041 0001296  66.0073 294.1051 15.06393660102480","REV_AT_EPOCH":"10248","CLASSIFICATION_TYPE":"U"},{"ECCENTRICITY":"0.00014300","ARG_OF_PERICENTER":"69.9161","TLE_LINE1":"1 45096U 20006BE  21338.49953540 -.00001625  00000-0 -90206-4 0  9995","MEAN_MOTION_DDOT":"0.0000000000000","CENTER_NAME":"EARTH","REF_FRAME":"TEME","INCLINATION":"53.0563","REV_AT_EPOCH":"10246","TLE_LINE2":"2 45096  53.0563  32.6405 0001430  69.9161 290.1982 15.06393059102463","CLASSIFICATION_TYPE":"U","MEAN_MOTION_DOT":"-0.00001625","ELEMENT_SET_NO":"999","FILE":"3232651","SEMIMAJOR_AXIS":"6925.370","MEAN_MOTION":"15.06393059","GP_ID":"191101539","SITE":"AFETR","LAUNCH_DATE":"2020-01-29","COUNTRY_CODE":"US","RA_OF_ASC_NODE":"32.6405","APOAPSIS":"548.225","OBJECT_TYPE":"PAYLOAD","PERIOD":"95.593","OBJECT_ID":"2020-006BE","MEAN_ANOMALY":"290.1982","OBJECT_NAME":"STARLINK-1152","NORAD_CAT_ID":"45096","PERIAPSIS":"546.245","BSTAR":"-0.00009020600000","RCS_SIZE":"LARGE","TIME_SYSTEM":"UTC","MEAN_ELEMENT_THEORY":"SGP4","EPOCH":"2021-12-04T11:59:19.858560","EPHEMERIS_TYPE":"0","DECAY_DATE":null},{"ARG_OF_PERICENTER":"69.9868","TLE_LINE1":"1 45098U 20006BG  21338.87919243  .00000085  00000-0  24633-4 0  9999","MEAN_MOTION_DDOT":"0.0000000000000","ECCENTRICITY":"0.00015150","REV_AT_EPOCH":"10252","TLE_LINE2":"2 45098  53.0563  30.9319 0001515  69.9868 290.1284 15.06392982102524","CLASSIFICATION_TYPE":"U","CENTER_NAME":"EARTH","REF_FRAME":"TEME","INCLINATION":"53.0563","FILE":"3232651","MEAN_MOTION":"15.06392982","SEMIMAJOR_AXIS":"6925.370","SITE":"AFETR","GP_ID":"191101790","LAUNCH_DATE":"2020-01-29","MEAN_MOTION_DOT":"0.00000085","ELEMENT_SET_NO":"999","COUNTRY_CODE":"US","RA_OF_ASC_NODE":"30.9319","APOAPSIS":"548.284","OBJECT_TYPE":"PAYLOAD","PERIOD":"95.593","OBJECT_ID":"2020-006BG","OBJECT_NAME":"STARLINK-1184","NORAD_CAT_ID":"45098","MEAN_ANOMALY":"290.1284","BSTAR":"0.00002463300000","PERIAPSIS":"546.186","EPOCH":"2021-12-04T21:06:02.225952","EPHEMERIS_TYPE":"0","DECAY_DATE":null,"RCS_SIZE":"LARGE","TIME_SYSTEM":"UTC","MEAN_ELEMENT_THEORY":"SGP4"}];
